norad_id,name,regime,epoch,line1,line2,inclination,eccentricity,mean_motion,raan,arg_pericenter,mean_anomaly
19751,COSMOS 1989 (ETALON 1),NSO,18080.37261134,1 19751U 89001C   18080.37261134 +.00000029 +00000-0 +00000-0 0 0001\,2 19751 064.1435 175.5268 0021635 209.3571 259.0030 02.1315626722721,64.1435,0.0021635,2.13156267,175.5268,209.3571,259.003
19751,COSMOS 1989 (ETALON 1),NSO,18080.77674762,1 19751U 89001C   18080.77674762 +.00000026 +00000-0 +00000-0 0 0001\,2 19751 064.1435 175.5130 0021637 209.3653 209.1139 02.1315626322722,64.1435,0.0021637,2.13156263,175.513,209.3653,209.1139
19751,COSMOS 1989 (ETALON 1),NSO,18081.14112361,1 19751U 89001C   18081.14112361  .00000023  00000-0  00000+0 0    72\,2 19751  64.1435 175.5005 0021638 209.3731 128.7148  2.13156258227292,64.1435,0.0021638,2.13156258,175.5005,209.3731,128.7148
19751,COSMOS 1989 (ETALON 1),NSO,18081.29354789,1 19751U 89001C   18081.29354789 +.00000021 +00000-0 +00000-0 0 0001\,2 19751 064.1434 175.4953 0021638 209.3721 245.6805 02.1315625722723,64.1434,0.0021638,2.13156257,175.4953,209.3721,245.6805
19751,COSMOS 1989 (ETALON 1),NSO,18081.83495139,1 19751U 89001C   18081.83495139 +.00000015 +00000-0 +00000-0 0 0001\,2 19751 064.1434 175.4768 0021640 209.3795 301.1260 02.1315625222724,64.1434,0.002164,2.13156252,175.4768,209.3795,301.126
19751,COSMOS 1989 (ETALON 1),NSO,18082.15675729,1 19751U 89001C   18082.15675729  .00000011  00000-0  00000+0 0    84\,2 19751  64.1434 175.4658 0021640 209.3860 188.0614  2.13156250227323,64.1434,0.002164,2.1315625,175.4658,209.386,188.0614
19751,COSMOS 1989 (ETALON 1),NSO,18082.52007081,1 19751U 89001C   18082.52007081 +.00000007 +00000-0 +00000-0 0 0001\,2 19751 064.1434 175.4533 0021641 209.3934 106.8473 02.1315624822725,64.1434,0.0021641,2.13156248,175.4533,209.3934,106.8473
19751,COSMOS 1989 (ETALON 1),NSO,18082.66707856,1 19751U 89001C   18082.66707856 +.00000005 +00000-0 +00000-0 0 0001\,2 19751 064.1434 175.4483 0021641 209.3904 219.6586 02.1315624822726,64.1434,0.0021641,2.13156248,175.4483,209.3904,219.6586
19751,COSMOS 1989 (ETALON 1),NSO,18083.19899007,1 19751U 89001C   18083.19899007 -.00000001  00000-0  00000+0 0    97\,2 19751  64.1434 175.4301 0021642 209.3945 267.8236  2.13156246227347,64.1434,0.0021642,2.13156246,175.4301,209.3945,267.8236
19751,COSMOS 1989 (ETALON 1),NSO,18083.47681503,1 19751U 89001C   18083.47681503 -.00000004 +00000-0 +00000-0 0 0001\,2 19751 064.1434 175.4206 0021642 209.4004 121.0103 02.1315624522727,64.1434,0.0021642,2.13156245,175.4206,209.4004,121.0103
19751,COSMOS 1989 (ETALON 1),NSO,18083.61199829,1 19751U 89001C   18083.61199829 -.00000006 +00000-0 +00000-0 0 0001\,2 19751 064.1433 175.4160 0021642 209.3966 224.7486 02.1315624522728,64.1433,0.0021642,2.13156245,175.416,209.3966,224.7486
19751,COSMOS 1989 (ETALON 1),NSO,18084.51012307,1 19751U 89001C   18084.51012307 -.00000014 +00000-0 +00000-0 0 0010\,2 19751 064.1433 175.3852 0021642 209.4018 193.9311 02.1315624622737,64.1433,0.0021642,2.13156246,175.3852,209.4018,193.9311
19751,COSMOS 1989 (ETALON 1),NSO,18084.56110757,1 19751U 89001C   18084.56110757 -.00000014 +00000-0 +00000-0 0 0001\,2 19751 064.1433 175.3835 0021643 209.4007 233.0558 02.1315624622730,64.1433,0.0021643,2.13156246,175.3835,209.4007,233.0558
19751,COSMOS 1989 (ETALON 1),NSO,18085.50012336,1 19751U 89001C   18085.50012336 -.00000019 +00000-0 +00000-0 0 0001\,2 19751 064.1433 175.3513 0021642 209.3979 233.6244 02.1315625122732,64.1433,0.0021642,2.13156251,175.3513,209.3979,233.6244
19751,COSMOS 1989 (ETALON 1),NSO,18086.38720962,1 19751U 89001C   18086.38720962 -.00000018  00000-0  00000+0 0   115\,2 19751  64.1433 175.3210 0021642 209.3979 194.3415  2.13156256227413,64.1433,0.0021642,2.13156256,175.321,209.3979,194.3415
19751,COSMOS 1989 (ETALON 1),NSO,18086.91712686,1 19751U 89001C   18086.91712686 -.00000016 +00000-0 +00000-0 0 0001\,2 19751 064.1433 175.3028 0021643 209.3980 240.9802 02.1315626022735,64.1433,0.0021643,2.1315626,175.3028,209.398,240.9802
19751,COSMOS 1989 (ETALON 1),NSO,18087.28217701,1 19751U 89001C   18087.28217701 -.00000013 +00000-0 +00000-0 0 0001\,2 19751 064.1433 175.2903 0021642 209.3984 161.1057 02.1315626322736,64.1433,0.0021642,2.13156263,175.2903,209.3984,161.1057
19751,COSMOS 1989 (ETALON 1),NSO,18087.86826733,1 19751U 89001C   18087.86826733 -.00000008  00000-0  00000+0 0   122\,2 19751  64.1433 175.2703 0021644 209.3996 250.8484  2.13156269227441,64.1433,0.0021644,2.13156269,175.2703,209.3996,250.8484
19751,COSMOS 1989 (ETALON 1),NSO,18088.62008487,1 19751U 89001C   18088.62008487 -.00000001 +00000-0 +00000-0 0 0001\,2 19751 064.1433 175.2446 0021645 209.4073 107.7576 02.1315627922738,64.1433,0.0021645,2.13156279,175.2446,209.4073,107.7576
19751,COSMOS 1989 (ETALON 1),NSO,18088.85705993,1 19751U 89001C   18088.85705993 +.00000002 +00000-0 +00000-0 0 0001\,2 19751 064.1433 175.2364 0021647 209.4072 289.6035 02.1315628322739,64.1433,0.0021647,2.13156283,175.2364,209.4072,289.6035
19751,COSMOS 1989 (ETALON 1),NSO,18089.11221580,1 19751U 89001C   18089.11221580  .00000004  00000-0  00000+0 0   137\,2 19751  64.1433 175.2277 0021646 209.4090 125.3988  2.13156286227461,64.1433,0.0021646,2.13156286,175.2277,209.409,125.3988
19751,COSMOS 1989 (ETALON 1),NSO,18089.58056309,1 19751U 89001C   18089.58056309 +.00000009 +00000-0 +00000-0 0 0001\,2 19751 064.1433 175.2117 0021648 209.4142 124.7860 02.1315629422740,64.1433,0.0021648,2.13156294,175.2117,209.4142,124.786
19751,COSMOS 1989 (ETALON 1),NSO,18090.16738812,1 19751U 89001C   18090.16738812  .00000014  00000-0  00000+0 0   147\,2 19751  64.1432 175.1916 0021651 209.4198 215.0881  2.13156305227498,64.1432,0.0021651,2.13156305,175.1916,209.4198,215.0881
19751,COSMOS 1989 (ETALON 1),NSO,18090.56284671,1 19751U 89001C   18090.56284671 +.00000016 +00000-0 +00000-0 0 0001\,2 19751 064.1432 175.1781 0021652 209.4262 158.5420 02.1315631122743,64.1432,0.0021652,2.13156311,175.1781,209.4262,158.542
19751,COSMOS 1989 (ETALON 1),NSO,18090.87672822,1 19751U 89001C   18090.87672822 +.00000018 +00000-0 +00000-0 0 0001\,2 19751 064.1432 175.1673 0021652 209.4338 039.3955 02.1315631822743,64.1432,0.0021652,2.13156318,175.1673,209.4338,39.3955
19751,COSMOS 1989 (ETALON 1),NSO,18091.18089012,1 19751U 89001C   18091.18089012  .00000019  00000-0  00000+0 0   157\,2 19751  64.1432 175.1569 0021654 209.4353 272.7965  2.13156324227515,64.1432,0.0021654,2.13156324,175.1569,209.4353,272.7965
19751,COSMOS 1989 (ETALON 1),NSO,18091.49995434,1 19751U 89001C   18091.49995434 +.00000020 +00000-0 +00000-0 0 0001\,2 19751 064.1432 175.1460 0021654 209.4370 157.6329 02.1315632922745,64.1432,0.0021654,2.13156329,175.146,209.437,157.6329
19751,COSMOS 1989 (ETALON 1),NSO,18091.88268172,1 19751U 89001C   18091.88268172 +.00000020 +00000-0 +00000-0 0 0001\,2 19751 064.1432 175.1329 0021654 209.4412 091.3195 02.1315633722745,64.1432,0.0021654,2.13156337,175.1329,209.4412,91.3195
19751,COSMOS 1989 (ETALON 1),NSO,18092.46262868,1 19751U 89001C   18092.46262868  .00000019  00000-0  00000+0 0   162\,2 19751  64.1432 175.1131 0021656 209.4414 176.3491  2.13156348227542,64.1432,0.0021656,2.13156348,175.1131,209.4414,176.3491
19751,COSMOS 1989 (ETALON 1),NSO,18092.52785262,1 19751U 89001C   18092.52785262 +.00000018 +00000-0 +00000-0 0 0001\,2 19751 064.1432 175.1108 0021657 209.4428 226.3981 02.1315634922747,64.1432,0.0021657,2.13156349,175.1108,209.4428,226.3981
19751,COSMOS 1989 (ETALON 1),NSO,18092.85565424,1 19751U 89001C   18092.85565424 +.00000017 +00000-0 +00000-0 0 0001\,2 19751 064.1432 175.0996 0021656 209.4432 117.9405 02.1315635522747,64.1432,0.0021656,2.13156355,175.0996,209.4432,117.9405
19751,COSMOS 1989 (ETALON 1),NSO,18093.47709292,1 19751U 89001C   18093.47709292  .00000013  00000-0  00000+0 0   176\,2 19751  64.1432 175.0783 0021657 209.4423 234.8105  2.13156365227568,64.1432,0.0021657,2.13156365,175.0783,209.4423,234.8105
19751,COSMOS 1989 (ETALON 1),NSO,18093.88685330,1 19751U 89001C   18093.88685330 +.00000010 +00000-0 +00000-0 0 0001\,2 19751 064.1432 175.0643 0021657 209.4392 189.2485 02.1315637222750,64.1432,0.0021657,2.13156372,175.0643,209.4392,189.2485
19751,COSMOS 1989 (ETALON 1),NSO,18094.30846060,1 19751U 89001C   18094.30846060 +.00000007 +00000-0 +00000-0 0 0001\,2 19751 064.1432 175.0499 0021657 209.4367 152.7769 02.1315637822751,64.1432,0.0021657,2.13156378,175.0499,209.4367,152.7769
19751,COSMOS 1989 (ETALON 1),NSO,18094.80029668,1 19751U 89001C   18094.80029668  .00000002  00000-0  00000+0 0   185\,2 19751  64.1431 175.0331 0021658 209.4334 170.1970  2.13156384227594,64.1431,0.0021658,2.13156384,175.0331,209.4334,170.197
19751,COSMOS 1989 (ETALON 1),NSO,18095.31812840,1 19751U 89001C   18095.31812840 -.00000002 +00000-0 +00000-0 0 0001\,2 19751 064.1431 175.0153 0021659 209.4306 207.5647 02.1315639022753,64.1431,0.0021659,2.1315639,175.0153,209.4306,207.5647
19751,COSMOS 1989 (ETALON 1),NSO,18096.23286880,1 19751U 89001C   18096.23286880 -.00000009  00000-0  00000+0 0   194\,2 19751  64.1431 174.9840 0021662 209.4268 189.5066  2.13156400227621,64.1431,0.0021662,2.131564,174.984,209.4268,189.5066
19751,COSMOS 1989 (ETALON 1),NSO,18096.77034012,1 19751U 89001C   18096.77034012 -.00000012 +00000-0 +00000-0 0 0001\,2 19751 064.1431 174.9656 0021664 209.4294 241.9396 02.1315640522756,64.1431,0.0021664,2.13156405,174.9656,209.4294,241.9396
19751,COSMOS 1989 (ETALON 1),NSO,18097.60561862,1 19751U 89001C   18097.60561862 -.00000013 +00000-0 +00000-0 0 0001\,2 19751 064.1431 174.9370 0021668 209.4323 162.8987 02.1315641222758,64.1431,0.0021668,2.13156412,174.937,209.4323,162.8987
19751,COSMOS 1989 (ETALON 1),NSO,18097.66490410,1 19751U 89001C   18097.66490410 -.00000013  00000-0  00000+0 0   205\,2 19751  64.1431 174.9350 0021668 209.4340 208.3905  2.13156413227653,64.1431,0.0021668,2.13156413,174.935,209.434,208.3905
